*******************************************************************************
 Revised: April 12, 2021             Mercury                            199 / 1

 PHYSICAL DATA (updated 2024-Mar-04):
  Vol. Mean Radius (km) =  2439.4+-0.1    Density (g cm^-3)     = 5.427
  Mass x10^23 (kg)      =     3.302       Volume (x10^10 km^3)  = 6.085  
  Sidereal rot. period  =    58.6463 d    Sid. rot. rate (rad/s)= 0.00000124001
  Mean solar day        =   175.9421 d    Core radius (km)      = ~1600 
  Geometric Albedo      =     0.106       Surface emissivity    = 0.77+-0.06
  GM (km^3/s^2)         = 22031.86855     Equatorial radius, Re = 2440.53 km
  GM 1-sigma (km^3/s^2) =                 Mass ratio (Sun/plnt) = 6023682
  Mom. of Inertia       =     0.33        Equ. gravity  m/s^2   = 3.701     
  Atmos. pressure (bar) = < 5x10^-15      Max. angular diam.    = 11.0"   
  Mean Temperature (K)  = 440             Visual mag. V(1,0)    = -0.42 
  Obliquity to orbit[1] =  2.11' +/- 0.1' Hill's sphere rad. Rp = 94.4 
  Sidereal orb. per.    =  0.2408467 y    Mean Orbit vel.  km/s = 47.362 
  Sidereal orb. per.    = 87.969257  d    Escape vel. km/s      =  4.435
                                 Perihelion  Aphelion    Mean
  Solar Constant (W/m^2)         14462       6278        9126
  Maximum Planetary IR (W/m^2)   12700       5500        8000
  Minimum Planetary IR (W/m^2)   6           6           6
*******************************************************************************


*******************************************************************************
Ephemeris / WWW_USER Mon Jan  5 13:44:50 2026 Pasadena, USA      / Horizons
*******************************************************************************
Target body name: Mercury Barycenter (199)        {source: DE441}
Center body name: Solar System Barycenter (0)     {source: DE441}
Center-site name: BODY CENTER
*******************************************************************************
Start time      : A.D. 2026-Jan-05 00:00:00.0000 TDB
Stop  time      : A.D. 2026-Apr-03 00:00:00.0000 TDB
Step-size       : 1440 minutes
*******************************************************************************
Center geodetic : 0.0, 0.0, 0.0                   {E-lon(deg),Lat(deg),Alt(km)}
Center cylindric: 0.0, 0.0, 0.0                   {E-lon(deg),Dxy(km),Dz(km)}
Center radii    : (undefined)
Output units    : KM-S
Calendar mode   : Mixed Julian/Gregorian
Output type     : GEOMETRIC cartesian states
Output format   : 3 (position, velocity, LT, range, range-rate)
Reference frame : Ecliptic of J2000.0
*******************************************************************************
JDTDB
   X     Y     Z
   VX    VY    VZ
   LT    RG    RR
*******************************************************************************
$$SOE
2461069.500000000 = A.D. 2026-Jan-29 00:00:00.0000 TDB 
 X = 4.920517495934130E+07 Y =-3.348482682233589E+07 Z =-7.202137957298512E+06
 VX= 1.721211580710957E+01 VY= 4.293555033378736E+01 VZ= 1.930974644591849E+00
 LT= 1.999786623034747E+02 RG= 5.995209471951061E+07 RR=-1.008591019797844E+01
2461070.500000000 = A.D. 2026-Jan-30 00:00:00.0000 TDB 
 X = 5.057492176573745E+07 Y =-2.970164513818994E+07 Z =-7.018525180598820E+06
 VX= 1.446353699180768E+01 VY= 4.461528160755606E+01 VZ= 2.320340780472627E+00
 LT= 1.970364587355876E+02 RG= 5.907004427995738E+07 RR=-1.032571395301614E+01
2461071.500000000 = A.D. 2026-Jan-31 00:00:00.0000 TDB 
 X = 5.169901518709143E+07 Y =-2.577954064431525E+07 Z =-6.801028443670106E+06
 VX= 1.152546249949714E+01 VY= 4.614791125220147E+01 VZ= 2.715065361925280E+00
 LT= 1.940307355079667E+02 RG= 5.816895112548121E+07 RR=-1.052592694010756E+01
2461072.500000000 = A.D. 2026-Feb-01 00:00:00.0000 TDB 
 X = 5.256104689671382E+07 Y =-2.173214679320949E+07 Z =-6.549256985825741E+06
 VX= 8.397358827123403E+00 VY= 4.751169294726702E+01 VZ= 3.113420143880791E+00
 LT= 1.909736049120609E+02 RG= 5.725244642970764E+07 RR=-1.068159949777679E+01
2461073.500000000 = A.D. 2026-Feb-02 00:00:00.0000 TDB 
 X = 5.314464684210111E+07 Y =-1.757506993113093E+07 Z =-6.262984787623215E+06
 VX= 5.080732168265351E+00 VY= 4.868269963039498E+01 VZ= 3.513311591843422E+00
 LT= 1.878786715113125E+02 RG= 5.632460873815095E+07 RR=-1.078732661130796E+01
2461074.500000000 = A.D. 2026-Feb-03 00:00:00.0000 TDB 
 X = 5.343368316165514E+07 Y =-1.332607775444194E+07 Z =-5.942184307708049E+06
 VX= 1.579690758947291E+00 VY= 4.963483672709405E+01 VZ= 3.912230385104944E+00
 LT= 1.847611613298129E+02 RG= 5.539000269799915E+07 RR=-1.083726598322579E+01
2461075.500000000 = A.D. 2026-Feb-04 00:00:00.0000 TDB 
 X = 5.341251430883294E+07 Y =-9.005282497745482E+06 Z =-5.587064577550847E+06
 VX=-2.098409410014121E+00 VY= 5.033995633717187E+01 VZ= 4.307201524181469E+00
 LT= 1.816380420768476E+02 RG= 5.445371510052557E+07 RR=-1.082518359591249E+01
2461076.500000000 = A.D. 2026-Feb-05 00:00:00.0000 TDB 
 X = 5.306630035143021E+07 Y =-4.635308627448278E+06 Z =-5.198113457412129E+06
 VX=-5.942242455769660E+00 VY= 5.076810816271012E+01 VZ= 4.694738603680889E+00
 LT= 1.785281251788910E+02 RG= 5.352138546951141E+07 RR=-1.074453606824402E+01
2461077.500000000 = A.D. 2026-Feb-06 00:00:00.0000 TDB 
 X = 5.238137937191130E+07 Y =-2.414314864765471E+05 Z =-4.776143489345672E+06
 VX=-9.935731857878817E+00 VY= 5.088796818179831E+01 VZ= 5.070807235745235E+00
 LT= 1.754521375167459E+02 RG= 5.259922756749928E+07 RR=-1.058860037130862E+01
2461078.500000000 = A.D. 2026-Feb-07 00:00:00.0000 TDB 
 X = 5.134571273934032E+07 Y = 4.148330355798950E+06 Z =-4.322340283668345E+06
 VX=-1.405724389451063E+01 VY= 5.066748898036659E+01 VZ= 5.430804220181606E+00
 LT= 1.724327476171032E+02 RG= 5.169403724782501E+07 RR=-1.035066202342600E+01
2461079.500000000 = A.D. 2026-Feb-08 00:00:00.0000 TDB 
 X = 4.994939938968804E+07 Y = 8.503190064990489E+06 Z =-3.838311733894058E+06
 VX=-1.827880726715205E+01 VY= 5.007481417545061E+01 VZ= 5.769560699015166E+00
 LT= 1.694945279134029E+02 RG= 5.081318114070866E+07 RR=-1.002427211299988E+01
2461080.500000000 = A.D. 2026-Feb-09 00:00:00.0000 TDB 
 X = 4.818525379529612E+07 Y = 1.278965919029197E+07 Z =-3.326135580189009E+06
 VX=-2.256543366797742E+01 VY= 4.907949083748414E+01 VZ= 6.081378922776661E+00
 LT= 1.666638320639874E+02 RG= 4.996455987416199E+07 RR=-9.603580603293350E+00
2461081.500000000 = A.D. 2026-Feb-10 00:00:00.0000 TDB 
 X = 4.604943479943883E+07 Y = 1.697173258731335E+07 Z =-2.788401972368966E+06
 VX=-2.687463823163895E+01 VY= 4.765399527724869E+01 VZ= 6.360112958960421E+00
 LT= 1.639685649350372E+02 RG= 4.915653911660741E+07 RR=-9.083747472616578E+00
2461082.500000000 = A.D. 2026-Feb-11 00:00:00.0000 TDB 
 X = 4.354210297062965E+07 Y = 2.101121828037179E+07 Z =-2.228246803801002E+06
 VX=-3.115628046123756E+01 VY= 4.577555636645551E+01 VZ= 6.599303109111753E+00
 LT= 1.614378237038735E+02 RG= 4.839784198235490E+07 RR=-8.461423579866594E+00
2461083.500000000 = A.D. 2026-Feb-12 00:00:00.0000 TDB 
 X = 4.066807306267916E+07 Y = 2.486823571363748E+07 Z =-1.649370835187925E+06
 VX=-3.535285919146357E+01 VY= 4.342821550083536E+01 VZ= 6.792371308437088E+00
 LT= 1.591013927542866E+02 RG= 4.769739760503096E+07 RR=-7.735279460500743E+00
2461084.500000000 = A.D. 2026-Feb-13 00:00:00.0000 TDB 
 X = 3.743741663364166E+07 Y = 2.850189818035637E+07 Z =-1.056039195457241E+06
 VX=-3.940039150128717E+01 VY= 4.060500511503648E+01 VZ= 6.932879772489198E+00
 LT= 1.569890837012939E+02 RG= 4.706414328197861E+07 RR=-6.906543301772361E+00
2461085.500000000 = A.D. 2026-Feb-14 00:00:00.0000 TDB 
 X = 3.386595968355224E+07 Y = 3.187118229795220E+07 Z =-4.530559680519234E+05
 VX=-4.322997680963056E+01 VY= 3.731006455280579E+01 VZ= 7.014847367917323E+00
 LT= 1.551299256542486E+02 RG= 4.650678172124444E+07 RR=-5.979491399272338E+00
2461086.500000000 = A.D. 2026-Feb-15 00:00:00.0000 TDB 
 X = 2.997561377709733E+07 Y = 3.493596916912907E+07 Z = 1.542905258807782E+05
 VX=-4.677008743850957E+01 VY= 3.356045477305279E+01 VZ= 7.033108001290637E+00
 LT= 1.535512294447352E+02 RG= 4.603350050415915E+07 RR=-4.961819537746849E+00
2461087.500000000 = A.D. 2026-Feb-16 00:00:00.0000 TDB 
 X = 2.579447930008818E+07 Y = 3.765821951954298E+07 Z = 7.603142926751170E+05
 VX=-4.994953525071617E+01 VY= 2.938739829781173E+01 VZ= 6.983684045148824E+00
 LT= 1.522775713483579E+02 RG= 4.565166741279460E+07 RR=-3.864817477003761E+00
2461088.500000000 = A.D. 2026-Feb-17 00:00:00.0000 TDB 
 X = 2.135666869306093E+07 Y = 4.000322133915283E+07 Z = 1.359049839663532E+06
 VX=-5.270094943375873E+01 VY= 2.483667601474688E+01 VZ= 6.864137740994529E+00
 LT= 1.513297635092223E+02 RG= 4.536752177098844E+07 RR=-2.703276679791970E+00
2461089.500000000 = A.D. 2026-Feb-18 00:00:00.0000 TDB 
 X = 1.670181690753810E+07 Y = 4.194082750795341E+07 Z = 1.944398217475738E+06
 VX=-5.496448290205289E+01 VY= 1.996797169508275E+01 VZ= 6.673857574885250E+00
 LT= 1.507238951478617E+02 RG= 4.518588700571174E+07 RR=-1.495087094773654E+00
2461090.500000000 = A.D. 2026-Feb-19 00:00:00.0000 TDB 
 X = 1.187427502324001E+07 Y = 4.344658743678663E+07 Z = 2.510293460758416E+06
 VX=-5.669137244977011E+01 VY= 1.485307080292065E+01 VZ= 6.414237608665944E+00
 LT= 1.504705356124229E+02 RG= 4.510993172782479E+07 RR=-2.605211179602305E-01
2461091.500000000 = A.D. 2026-Feb-20 00:00:00.0000 TDB 
 X = 6.922017460225776E+06 Y = 4.450267529496380E+07 Z = 3.050878673850082E+06
 VX=-5.784694029758224E+01 VY= 9.572978176293567E+00 VZ= 6.088717224040325E+00
 LT= 1.505741835024425E+02 RG= 4.514100458354029E+07 RR= 9.787453018026797E-01
2461092.500000000 = A.D. 2026-Feb-21 00:00:00.0000 TDB 
 X = 1.895327796560723E+06 Y = 4.509853035763811E+07 Z = 3.560678895879049E+06
 VX=-5.841266232596851E+01 VY= 4.214188732882909E+00 VZ= 5.702666047774422E+00
 LT= 1.510330243753904E+02 RG= 4.527856161667220E+07 RR= 2.200775267893614E+00
